[{"OBJECT_NAME":"STARLINK-3293","OBJECT_ID":"2021-125W","EPOCH":"2026-03-09T19:41:30.278976","MEAN_MOTION":15.08840405,"ECCENTRICITY":0.00012576,"INCLINATION":53.2166,"RA_OF_ASC_NODE":248.5343,"ARG_OF_PERICENTER":86.2582,"MEAN_ANOMALY":273.8554,"EPHEMERIS_TYPE":0,"CLASSIFICATION_TYPE":"U","NORAD_CAT_ID":50176,"ELEMENT_SET_NO":999,"REV_AT_EPOCH":23666,"BSTAR":0.00011188765,"MEAN_MOTION_DOT":1.493e-5,"MEAN_MOTION_DDOT":0},{"OBJECT_NAME":"AISAT","OBJECT_ID":"2014-034B","EPOCH":"2026-03-09T16:29:04.722144","MEAN_MOTION":15.06703825,"ECCENTRICITY":0.00089151,"INCLINATION":98.2441,"RA_OF_ASC_NODE":333.9816,"ARG_OF_PERICENTER":189.0234,"MEAN_ANOMALY":171.0832,"EPHEMERIS_TYPE":0,"CLASSIFICATION_TYPE":"U","NORAD_CAT_ID":40054,"ELEMENT_SET_NO":999,"REV_AT_EPOCH":63221,"BSTAR":0.00094770343,"MEAN_MOTION_DOT":0.00014038,"MEAN_MOTION_DDOT":0}]
